[
    {
        "Altitude(m)": 716681.5746248662,
        "Argument of Periapsis(deg)": 0.010251109067964361,
        "Eccentricity": 0.0,
        "Inclination(deg)": 45.0,
        "Latitude(deg)": -42.25301093619331,
        "Longitude(deg)": -80.32282085852226,
        "Mean Anomaly(deg)": -71.43830501726725,
        "RAAN(deg)": 84.99032325268763,
        "Satellite Name": "Constellation 1 391",
        "Satellite Number": 391,
        "Semi-Major Axis(m)": 7083131.272910544,
        "Time(s)": 171
    },
    {
        "Altitude(m)": 716673.9406111406,
        "Argument of Periapsis(deg)": 0.010311057074209765,
        "Eccentricity": 0.0,
        "Inclination(deg)": 45.0,
        "Latitude(deg)": -42.23459835242162,
        "Longitude(deg)": -80.24917414592174,
        "Mean Anomaly(deg)": -71.37760387701734,
        "RAAN(deg)": 84.99026666352205,
        "Satellite Name": "Constellation 1 391",
        "Satellite Number": 391,
        "Semi-Major Axis(m)": 7083131.272910544,
        "Time(s)": 172
    },
    {
        "Altitude(m)": 716666.2846342932,
        "Argument of Periapsis(deg)": 0.010371005080455171,
        "Eccentricity": 0.0,
        "Inclination(deg)": 45.0,
        "Latitude(deg)": -42.21613303131895,
        "Longitude(deg)": -80.17557257725845,
        "Mean Anomaly(deg)": -71.31690273676743,
        "RAAN(deg)": 84.99021007435648,
        "Satellite Name": "Constellation 1 391",
        "Satellite Number": 391,
        "Semi-Major Axis(m)": 7083131.272910544,
        "Time(s)": 173
    },
    {
        "Altitude(m)": 716658.6067223987,
        "Argument of Periapsis(deg)": 0.010430953086700577,
        "Eccentricity": 0.0,
        "Inclination(deg)": 45.0,
        "Latitude(deg)": -42.197615036795774,
        "Longitude(deg)": -80.10201622578893,
        "Mean Anomaly(deg)": -71.25620159651757,
        "RAAN(deg)": 84.99015348519092,
        "Satellite Name": "Constellation 1 391",
        "Satellite Number": 391,
        "Semi-Major Axis(m)": 7083131.272910544,
        "Time(s)": 174
    },
    {
        "Altitude(m)": 716650.906903621,
        "Argument of Periapsis(deg)": 0.010490901092945983,
        "Eccentricity": 0.0,
        "Inclination(deg)": 45.0,
        "Latitude(deg)": -42.17904443284855,
        "Longitude(deg)": -80.02850516422045,
        "Mean Anomaly(deg)": -71.19550045626772,
        "RAAN(deg)": 84.99009689602535,
        "Satellite Name": "Constellation 1 391",
        "Satellite Number": 391,
        "Semi-Major Axis(m)": 7083131.272910544,
        "Time(s)": 175
    },
    {
        "Altitude(m)": 716643.1852061938,
        "Argument of Periapsis(deg)": 0.010550849099191389,
        "Eccentricity": 0.0,
        "Inclination(deg)": 45.0,
        "Latitude(deg)": -42.16042128355899,
        "Longitude(deg)": -79.95503946471146,
        "Mean Anomaly(deg)": -71.13479931601776,
        "RAAN(deg)": 84.99004030685977,
        "Satellite Name": "Constellation 1 391",
        "Satellite Number": 391,
        "Semi-Major Axis(m)": 7083131.272910544,
        "Time(s)": 176
    },
    {
        "Altitude(m)": 716635.4416584279,
        "Argument of Periapsis(deg)": 0.010610797105436795,
        "Eccentricity": 0.0,
        "Inclination(deg)": 45.0,
        "Latitude(deg)": -42.14174565309316,
        "Longitude(deg)": -79.88161919887257,
        "Mean Anomaly(deg)": -71.07409817576784,
        "RAAN(deg)": 84.9899837176942,
        "Satellite Name": "Constellation 1 391",
        "Satellite Number": 391,
        "Semi-Major Axis(m)": 7083131.272910544,
        "Time(s)": 177
    },
    {
        "Altitude(m)": 716627.6762887279,
        "Argument of Periapsis(deg)": 0.0106707451116822,
        "Eccentricity": 0.0,
        "Inclination(deg)": 45.0,
        "Latitude(deg)": -42.12301760570067,
        "Longitude(deg)": -79.80824460586379,
        "Mean Anomaly(deg)": -71.01339703551793,
        "RAAN(deg)": 84.98992712852862,
        "Satellite Name": "Constellation 1 391",
        "Satellite Number": 391,
        "Semi-Major Axis(m)": 7083131.272910544,
        "Time(s)": 178
    },
    {
        "Altitude(m)": 716619.8891255615,
        "Argument of Periapsis(deg)": 0.010730693117927606,
        "Eccentricity": 0.0,
        "Inclination(deg)": 45.0,
        "Latitude(deg)": -42.10423720571369,
        "Longitude(deg)": -79.73491542000608,
        "Mean Anomaly(deg)": -70.95269589526808,
        "RAAN(deg)": 84.98987053936307,
        "Satellite Name": "Constellation 1 391",
        "Satellite Number": 391,
        "Semi-Major Axis(m)": 7083131.272910544,
        "Time(s)": 179
    },
    {
        "Altitude(m)": 716612.0801974827,
        "Argument of Periapsis(deg)": 0.01079064112417301,
        "Eccentricity": 0.0,
        "Inclination(deg)": 45.0,
        "Latitude(deg)": -42.085404517546216,
        "Longitude(deg)": -79.66163187936554,
        "Mean Anomaly(deg)": -70.89199475501816,
        "RAAN(deg)": 84.9898139501975,
        "Satellite Name": "Constellation 1 391",
        "Satellite Number": 391,
        "Semi-Major Axis(m)": 7083131.272910544,
        "Time(s)": 180
    },
    {
        "Altitude(m)": 716604.2495331243,
        "Argument of Periapsis(deg)": 0.010850589130418416,
        "Eccentricity": 0.0,
        "Inclination(deg)": 45.0,
        "Latitude(deg)": -42.06651960569329,
        "Longitude(deg)": -79.58839405336509,
        "Mean Anomaly(deg)": -70.83129361476824,
        "RAAN(deg)": 84.98975736103192,
        "Satellite Name": "Constellation 1 391",
        "Satellite Number": 391,
        "Semi-Major Axis(m)": 7083131.272910544,
        "Time(s)": 181
    },
    {
        "Altitude(m)": 716596.3971611928,
        "Argument of Periapsis(deg)": 0.01091053713666382,
        "Eccentricity": 0.0,
        "Inclination(deg)": 45.0,
        "Latitude(deg)": -42.04758253473002,
        "Longitude(deg)": -79.51520201088206,
        "Mean Anomaly(deg)": -70.77059247451838,
        "RAAN(deg)": 84.98970077186635,
        "Satellite Name": "Constellation 1 391",
        "Satellite Number": 391,
        "Semi-Major Axis(m)": 7083131.272910544,
        "Time(s)": 182
    },
    {
        "Altitude(m)": 716588.5231104777,
        "Argument of Periapsis(deg)": 0.010970485142909228,
        "Eccentricity": 0.0,
        "Inclination(deg)": 45.0,
        "Latitude(deg)": -42.02859336931069,
        "Longitude(deg)": -79.44205582024858,
        "Mean Anomaly(deg)": -70.70989133426849,
        "RAAN(deg)": 84.98964418270079,
        "Satellite Name": "Constellation 1 391",
        "Satellite Number": 391,
        "Semi-Major Axis(m)": 7083131.272910544,
        "Time(s)": 183
    },
    {
        "Altitude(m)": 716580.6274098455,
        "Argument of Periapsis(deg)": 0.011030433149154634,
        "Eccentricity": 0.0,
        "Inclination(deg)": 45.0,
        "Latitude(deg)": -42.00955217416822,
        "Longitude(deg)": -79.36895554925266,
        "Mean Anomaly(deg)": -70.64919019401859,
        "RAAN(deg)": 84.98958759353522,
        "Satellite Name": "Constellation 1 391",
        "Satellite Number": 391,
        "Semi-Major Axis(m)": 7083131.272910544,
        "Time(s)": 184
    },
    {
        "Altitude(m)": 716572.7100882357,
        "Argument of Periapsis(deg)": 0.01109038115540004,
        "Eccentricity": 0.0,
        "Inclination(deg)": 45.0,
        "Latitude(deg)": -41.990459014112965,
        "Longitude(deg)": -79.29590143323566,
        "Mean Anomaly(deg)": -70.58848905376867,
        "RAAN(deg)": 84.98953100436965,
        "Satellite Name": "Constellation 1 391",
        "Satellite Number": 391,
        "Semi-Major Axis(m)": 7083131.272910544,
        "Time(s)": 185
    },
    {
        "Altitude(m)": 716564.7711746752,
        "Argument of Periapsis(deg)": 0.011150329161645444,
        "Eccentricity": 0.0,
        "Inclination(deg)": 45.0,
        "Latitude(deg)": -41.9713139540321,
        "Longitude(deg)": -79.22289320270394,
        "Mean Anomaly(deg)": -70.52778791351881,
        "RAAN(deg)": 84.98947441520407,
        "Satellite Name": "Constellation 1 391",
        "Satellite Number": 391,
        "Semi-Major Axis(m)": 7083131.272910544,
        "Time(s)": 186
    },
    {
        "Altitude(m)": 716556.8106982617,
        "Argument of Periapsis(deg)": 0.01121027716789085,
        "Eccentricity": 0.0,
        "Inclination(deg)": 45.0,
        "Latitude(deg)": -41.952117058888625,
        "Longitude(deg)": -79.1499310919129,
        "Mean Anomaly(deg)": -70.46708677326889,
        "RAAN(deg)": 84.98941782603852,
        "Satellite Name": "Constellation 1 391",
        "Satellite Number": 391,
        "Semi-Major Axis(m)": 7083131.272910544,
        "Time(s)": 187
    },
    {
        "Altitude(m)": 716548.8286881767,
        "Argument of Periapsis(deg)": 0.011270225174136258,
        "Eccentricity": 0.0,
        "Inclination(deg)": 45.0,
        "Latitude(deg)": -41.93286839372075,
        "Longitude(deg)": -79.07701516647884,
        "Mean Anomaly(deg)": -70.40638563301899,
        "RAAN(deg)": 84.98936123687294,
        "Satellite Name": "Constellation 1 391",
        "Satellite Number": 391,
        "Semi-Major Axis(m)": 7083131.272910544,
        "Time(s)": 188
    },
    {
        "Altitude(m)": 716540.8251736675,
        "Argument of Periapsis(deg)": 0.011330173180381662,
        "Eccentricity": 0.0,
        "Inclination(deg)": 45.0,
        "Latitude(deg)": -41.913568023640934,
        "Longitude(deg)": -79.00414549147678,
        "Mean Anomaly(deg)": -70.34568449276907,
        "RAAN(deg)": 84.98930464770737,
        "Satellite Name": "Constellation 1 391",
        "Satellite Number": 391,
        "Semi-Major Axis(m)": 7083131.272910544,
        "Time(s)": 189
    }
]